GLOBALSTAR M040 [-]     
1 25622U 99004B   24109.40726998 -.00000035  00000+0  38464-3 0  9996
2 25622  51.9910 270.3857 0001157 142.2874 235.3274 12.61971512161625
GLOBALSTAR M036 [-]     
1 25623U 99004C   24108.81994406 -.00000060  00000+0  32457-3 0  9996
2 25623  51.9963 281.4624 0010673 317.2863 150.4086 11.86566853128483
GLOBALSTAR M038 [-]     
1 25624U 99004D   24109.47704485 -.00000069  00000+0  21178-3 0  9993
2 25624  51.9965 214.6562 0001625 230.0819 209.8427 12.32497072150004
GLOBALSTAR M022 [-]     
1 25649U 99012A   24109.56746692 -.00000079  00000+0  92963-4 0  9997
2 25649  52.0078   5.1917 0003131  52.2086  15.3780 12.02480210125297
GLOBALSTAR M037 [+]     
1 25652U 99012D   24109.10108123 -.00000071  00000+0  18260-3 0  9991
2 25652  52.0028  38.5658 0001905 343.1720 122.6660 12.62401405157583
